[{"OBJECT_NAME":"HORS 2","OBJECT_ID":"2023-091AG","EPOCH":"2026-03-09T22:11:34.810944","MEAN_MOTION":15.2928008,"ECCENTRICITY":0.00098173,"INCLINATION":97.5195,"RA_OF_ASC_NODE":134.7443,"ARG_OF_PERICENTER":79.3164,"MEAN_ANOMALY":280.9181,"EPHEMERIS_TYPE":0,"CLASSIFICATION_TYPE":"U","NORAD_CAT_ID":57196,"ELEMENT_SET_NO":999,"REV_AT_EPOCH":14934,"BSTAR":0.00059338338,"MEAN_MOTION_DOT":0.00016821,"MEAN_MOTION_DDOT":0},{"OBJECT_NAME":"STARLINK-36475","OBJECT_ID":"2026-003S","EPOCH":"2026-03-09T11:23:45.797568","MEAN_MOTION":15.27598575,"ECCENTRICITY":0.00027501,"INCLINATION":43.0003,"RA_OF_ASC_NODE":228.0452,"ARG_OF_PERICENTER":293.0154,"MEAN_ANOMALY":67.0408,"EPHEMERIS_TYPE":0,"CLASSIFICATION_TYPE":"U","NORAD_CAT_ID":67350,"ELEMENT_SET_NO":999,"REV_AT_EPOCH":879,"BSTAR":0.0011626147,"MEAN_MOTION_DOT":0.00031889,"MEAN_MOTION_DDOT":0}]
